[{"OBJECT_NAME":"NORSAT 4","OBJECT_ID":"2025-009CX","EPOCH":"2026-03-09T18:37:49.764288","MEAN_MOTION":14.94638948,"ECCENTRICITY":0.00023654,"INCLINATION":97.7094,"RA_OF_ASC_NODE":149.232,"ARG_OF_PERICENTER":53.4991,"MEAN_ANOMALY":306.6447,"EPHEMERIS_TYPE":0,"CLASSIFICATION_TYPE":"U","NORAD_CAT_ID":62702,"ELEMENT_SET_NO":999,"REV_AT_EPOCH":6251,"BSTAR":0.00032689863,"MEAN_MOTION_DOT":3.485e-5,"MEAN_MOTION_DDOT":0},{"OBJECT_NAME":"CZ-6A DEB","OBJECT_ID":"2024-140RN","EPOCH":"2026-03-09T09:36:23.350464","MEAN_MOTION":14.99974811,"ECCENTRICITY":0.0047719,"INCLINATION":88.1445,"RA_OF_ASC_NODE":217.6461,"ARG_OF_PERICENTER":172.1525,"MEAN_ANOMALY":188.0467,"EPHEMERIS_TYPE":0,"CLASSIFICATION_TYPE":"U","NORAD_CAT_ID":61168,"ELEMENT_SET_NO":999,"REV_AT_EPOCH":8322,"BSTAR":0.0063622011,"MEAN_MOTION_DOT":0.00081758,"MEAN_MOTION_DDOT":0}]
